OBJECT_NAME,OBJECT_ID,EPOCH,MEAN_MOTION,ECCENTRICITY,INCLINATION,RA_OF_ASC_NODE,ARG_OF_PERICENTER,MEAN_ANOMALY,EPHEMERIS_TYPE,CLASSIFICATION_TYPE,NORAD_CAT_ID,ELEMENT_SET_NO,REV_AT_EPOCH,BSTAR,MEAN_MOTION_DOT,MEAN_MOTION_DDOT
HAWK-5A,2022-057AB,2026-07-20T23:00:07.252128,15.52455151,.00029429,97.6637,3.0231,309.8300,50.2692,0,U,52757,999,23158,.22046684E-3,.13382E-3,0
HAWK-6B,2023-011A,2026-07-21T05:08:06.451584,15.23188223,.00045838,40.4981,153.5607,270.8827,89.1457,0,U,55324,999,19303,.14358561E-3,.3272E-4,0
HAWK-6C,2023-011C,2026-07-21T12:59:15.850752,15.23191156,.00050816,40.4970,148.4867,267.3990,92.6238,0,U,55326,999,19309,.15714503E-3,.36E-4,0
HAWK-6A,2023-011D,2026-07-21T05:07:15.007296,15.23188189,.0004771,40.4979,152.0272,262.7160,97.3107,0,U,55327,999,19304,.14221103E-3,.3239E-4,0
HAWK-7A,2023-054P,2026-07-21T15:11:11.571648,15.27677004,.00009804,97.2651,89.0940,285.0813,75.0318,0,U,56191,999,18228,.17089125E-3,.455E-4,0
HAWK-7B,2023-054R,2026-07-21T05:45:09.916704,15.27674337,.00007015,97.2682,86.9863,2.2557,357.8685,0,U,56193,999,18222,.1523771E-3,.4049E-4,0
HAWK-7C,2023-054Y,2026-07-21T13:36:35.343072,15.27677282,.00003401,97.2656,88.0639,296.0111,64.1094,0,U,56200,999,18227,.1699216E-3,.4524E-4,0
